STARLINK-30917          
1 58419U 23180T   25299.16935077  .00004449  00000+0  17111-3 0  9990
2 58419  43.0031 343.4523 0001460 256.8901 103.1788 15.27577397108321
STARLINK-30899          
1 58420U 23180U   25299.05253241  .00000039  00000+0  17982-4 0  9994
2 58420  43.0032  67.4793 0001435 266.3039  93.7639 15.02536546107227
STARLINK-30902          
1 58421U 23180V   25298.70016804 -.00000105  00000+0  73138-5 0  9999
2 58421  43.0033  69.1331 0001226 270.2478  89.8224 15.02531540107174
STARLINK-30912          
1 58422U 23180W   25299.09767260  .00000028  00000+0  10562-4 0  9996
2 58422  43.0036 310.4048 0001054 246.7056 113.3684 15.27555724108715
STARLINK-30900          
1 58423U 23180X   25299.06252047  .00004831  00000+0  37236-3 0  9998
2 58423  43.0020  67.5029 0001619 271.4206  88.6451 15.02545068107221
STARLINK-30908          
1 58424U 23180Y   25299.04452050 -.00002231  00000+0 -15018-3 0  9991
2 58424  42.9998  66.4727 0000341 253.2882 106.7923 15.02530935107342
CHUANGXIN 20A (CX-20A)  
1 58425U 23181A   25299.28724550 -.00000097  00000+0  54729-4 0  9996
2 58425  49.9580 104.4154 0012869 274.9234  85.0174 13.41468796 94352
CHUANGXIN 20B (CX-20B)  
1 58426U 23181B   25299.29390856 -.00000064  00000+0  11469-3 0  9993
2 58426  49.9578 104.4406 0010878 278.2071  81.7572 13.41460327 94340
CHUANGXIN 20C (CX-20C)  
1 58427U 23181C   25299.29057498 -.00000067  00000+0  10997-3 0  9994
2 58427  49.9579 104.4243 0010848 265.8331  94.1307 13.41465929 94357
COSMOS 2572             
1 58435U 23182A   25297.05881124 -.00000584  18793-5  34035-7 0  9998
2 58435  96.6944  39.7688 0013535 165.0808 195.0869 15.90081054110936
STARLINK-30869          
1 58437U 23183A   25299.00965210  .00000604  00000+0  59758-4 0  9991
2 58437  43.0038  55.2420 0001531 271.4694  88.5973 15.02535960106450
STARLINK-30969          
1 58438U 23183B   25298.61411940 -.00000001  00000+0  14960-4 0  9992
2 58438  43.0029  57.4337 0000980 273.7467  86.3263 15.02531528106399
STARLINK-30951          
1 58439U 23183C   25298.80689031  .00000950  00000+0  85381-4 0  9999
2 58439  43.0037  56.2994 0001337 276.9941  83.0750 15.02537369106422
STARLINK-30950          
1 58440U 23183D   25299.19305538  .00008713  00000+0  32613-3 0  9995
2 58440  43.0024 244.6932 0001714 256.2408 103.8253 15.27544476108462
STARLINK-30942          
1 58441U 23183E   25299.32206280 -.00000613  00000+0 -30313-4 0  9994
2 58441  43.0046  53.2857 0001573 257.2376 102.8290 15.02530540106508
STARLINK-30959          
1 58442U 23183F   25299.04948958  .00000381  00000+0  43262-4 0  9996
2 58442  43.0017  54.6822 0001242 271.3911  88.6789 15.02535509106468
STARLINK-30971          
1 58443U 23183G   25299.05948214 -.00003083  00000+0 -21330-3 0  9998
2 58443  43.0017  54.7495 0001399 264.8285  95.2398 15.02523365106467
STARLINK-30963          
1 58444U 23183H   25299.31207895  .00003077  00000+0  24276-3 0  9994
2 58444  43.0035  53.2085 0001125 292.9519  67.1205 15.02538111106501
STARLINK-30961          
1 58445U 23183J   25299.30874153  .00000091  00000+0  21788-4 0  9990
2 58445  43.0028  53.1823 0001238 270.7406  89.3294 15.02535402106501
STARLINK-30975          
1 58446U 23183K   25299.02408087  .00000996  00000+0  88756-4 0  9991
2 58446  43.0019  55.3338 0000979 282.5394  77.5338 15.02534550106472
STARLINK-30976          
1 58447U 23183L   25299.29876256  .00000058  00000+0  19398-4 0  9993
2 58447  43.0044  53.1391 0001460 272.5017  87.5658 15.02532769106503
STARLINK-30926          
1 58448U 23183M   25299.29541012 -.00013884  00000+0 -10129-2 0  9997
2 58448  43.0026  53.0437 0001700 272.3465  87.7182 15.02602975106507
STARLINK-30943          
1 58449U 23183N   25299.29605090  .00001369  00000+0  11640-3 0  9998
2 58449  43.0038  27.9092 0001071 278.0840  81.9881 15.02534036106794
STARLINK-30946          
1 58450U 23183P   25299.01628729  .00003027  00000+0  23897-3 0  9994
2 58450  43.0089  55.2909 0004596 261.1241  98.9081 15.02556295106450
STARLINK-30944          
1 58451U 23183Q   25299.30541346  .00000234  00000+0  32405-4 0  9999
2 58451  43.0030  53.1614 0001006 270.8301  89.2426 15.02534512106470
STARLINK-30928          
1 58452U 23183R   25299.03617935  .00002025  00000+0  16484-3 0  9996
2 58452  43.0014  54.5816 0001317 280.7112  79.3582 15.02551445106463
STARLINK-30957          
1 58453U 23183S   25299.02296935 -.00002226  00000+0 -14974-3 0  9996
2 58453  43.0026  55.3353 0001309 280.2411  79.8284 15.02537035106452
STARLINK-30966          
1 58454U 23183T   25299.01964009  .00001549  00000+0  12974-3 0  9993
2 58454  43.0021  55.3097 0001267 268.8799  91.1898 15.02530294106455
STARLINK-30935          
1 58455U 23183U   25298.73374996 -.00000338  00000+0 -99444-5 0  9998
2 58455  43.0032  56.6031 0001622 264.3658  95.6999 15.02534392106410
STARLINK-30960          
1 58456U 23183V   25299.21427007  .00011933  00000+0  44119-3 0  9993
2 58456  43.0023   0.6251 0000708 285.3222  74.7551 15.27673591107110
STARLINK-30958          
1 58457U 23183W   25299.31650557 -.00007841  00000+0 -56551-3 0  9991
2 58457  43.0027  53.2432 0001739 293.8652  66.2008 15.02567754106507
STARLINK-30962          
1 58458U 23183X   25299.29209889 -.00000521  00000+0 -23523-4 0  9999
2 58458  43.0043  53.0603 0001501 269.7947  90.2723 15.02531525106508
STARLINK-30977          
1 58459U 23183Y   25298.79689422 -.00000095  00000+0  80750-5 0  9990
2 58459  43.0031  56.2208 0001678 288.4546  71.6114 15.02540017106424
GNOMES-4                
1 58462U 23185A   25299.32536677  .00005680  00000+0  47703-3 0  9992
2 58462  97.5289 359.6873 0011488  11.2200 348.9277 14.98650196104235
KORSAT 7                
1 58463U 23185B   25299.32078969  .00003142  00000+0  24901-3 0  9994
2 58463  97.6341   2.8635 0026158  36.6923 323.6086 15.01015761104205
KOYOH                   
1 58464U 23185C   25299.33325515  .00008045  00000+0  43918-3 0  9994
2 58464  97.5606   7.7919 0008253  46.0416 314.1495 15.14574638104684
BANE                    
1 58465U 23185D   25299.31240545  .00043375  00000+0  78759-3 0  9998
2 58465  97.3657  12.4430 0003978 313.2828  46.8091 15.49443703106178
UHETSAT                 
1 58466U 23185E   25299.28862417  .00008332  00000+0  31359-3 0  9992
2 58466  97.3797   4.0635 0015429  64.9428 295.3411 15.27259851105540
LILIUM-1                
1 58467U 23185F   25299.29026723  .00045618  00000+0  95313-3 0  9994
2 58467  97.3599   9.5064 0006557 321.1598  38.9179 15.45347839105990
SPIRIT                  
1 58468U 23185G   25299.32704017  .00038402  00000+0  77422-3 0  9992
2 58468  97.3605  10.7971 0006245 318.1258  41.9513 15.46434273106080
ION SCV-015             
1 58469U 23185H   25299.31367469  .00008877  00000+0  31717-3 0  9998
2 58469  97.5934  17.8223 0009647 199.7554 160.3314 15.29035500105295
ROBUSTA-1E (ENSO)       
1 58470U 23185J   25298.09129247  .00524137  11009-3  15607-2 0  9990
2 58470  97.3514  19.7505 0006849 270.3016  89.7473 15.92395026106566
STARLINK-30947          
1 58473U 23186A   25299.11071842  .00001313  00000+0  11225-3 0  9999
2 58473  43.0042  79.0339 0001536 271.5636  88.5031 15.02535719105603
STARLINK-30995          
1 58474U 23186B   25299.28160130  .00021603  00000+0  76755-3 0  9990
2 58474  43.0012 287.6949 0001268 245.4486 114.6234 15.28620671107529
STARLINK-30941          
1 58475U 23186C   25299.10406081 -.00000038  00000+0  12242-4 0  9992
2 58475  43.0039  78.9818 0001358 267.8629  92.2057 15.02534196105601
STARLINK-30980          
1 58476U 23186D   25299.10073057  .00002046  00000+0  16650-3 0  9992
2 58476  43.0029  78.9545 0001269 270.9246  89.1451 15.02530036105601
STARLINK-30965          
1 58477U 23186E   25299.08655996 -.00001255  00000+0 -77807-4 0  9993
2 58477  43.0073  65.8429 0001856 266.3380  93.7250 15.02529930105752
STARLINK-30990          
1 58478U 23186F   25299.09739938  .00003351  00000+0  26308-3 0  9990
2 58478  43.0024  78.9296 0001380 269.3818  90.6867 15.02531539105643
STARLINK-30984          
1 58480U 23186H   25299.11725859  .00001584  00000+0  13231-3 0  9990
2 58480  43.0027  78.2160 0001102 271.9127  88.1589 15.02528324105614
STARLINK-30956          
1 58481U 23186J   25298.80126852  .00000348  00000+0  40816-4 0  9991
2 58481  43.0036  55.7270 0001100 268.1840  91.8876 15.02535503105847
STARLINK-30997          
1 58482U 23186K   25298.73503681  .00005722  00000+0  43829-3 0  9990
2 58482  43.0026  80.4809 0001221 259.7950 100.2754 15.02540428105552
STARLINK-30994          
1 58483U 23186L   25299.05556715 -.00001647  00000+0 -50356-4 0  9991
2 58483  43.0019 300.5084 0000892 277.9966  82.0785 15.27576652107219
STARLINK-30991          
1 58484U 23186M   25298.71506546  .00000263  00000+0  34526-4 0  9993
2 58484  43.0039  80.3562 0001409 267.8722  92.1959 15.02531775105548
STARLINK-30979          
1 58485U 23186N   25299.09074405 -.00000925  00000+0 -53411-4 0  9991
2 58485  43.0027  78.8813 0001294 271.1463  88.9231 15.02542878105596
STARLINK-31005          
1 58486U 23186P   25299.08743300 -.00002039  00000+0 -13596-3 0  9995
2 58486  43.0033  78.8539 0001356 267.0726  92.9961 15.02530050105598
STARLINK-30987          
1 58487U 23186Q   25298.68521113 -.00003805  00000+0 -26669-3 0  9994
2 58487  43.0031  80.9957 0001320 275.7282  84.3410 15.02545951105533
STARLINK-31000          
1 58488U 23186R   25299.08075093  .00003657  00000+0  28562-3 0  9998
2 58488  43.0026  78.8031 0001380 273.6890  86.3794 15.02535483105597
STARLINK-30993          
1 58489U 23186S   25299.07742265 -.00008613  00000+0 -62373-3 0  9997
2 58489  43.0026  78.7786 0001814 263.3391  96.7244 15.02508261105597
STARLINK-30978          
1 58490U 23186T   25298.74169962  .00000625  00000+0  61318-4 0  9991
2 58490  43.0027  80.5604 0001768 272.2515  87.8125 15.02536071105549
